{
    "links": {
        "self": "http://www.neowsapp.com/rest/v1/neo/3838214?api_key=iIulBulltgU6a56xZRHN4H3l9WmuAYTsLGpBGhQ2"
    },
    "id": "3838214",
    "neo_reference_id": "3838214",
    "name": "(2019 CF3)",
    "designation": "2019 CF3",
    "nasa_jpl_url": "http://ssd.jpl.nasa.gov/sbdb.cgi?sstr=3838214",
    "absolute_magnitude_h": 25.3,
    "estimated_diameter": {
        "kilometers": {
            "estimated_diameter_min": 0.0231502122,
            "estimated_diameter_max": 0.0517654482
        },
        "meters": {
            "estimated_diameter_min": 23.150212221,
            "estimated_diameter_max": 51.7654482198
        },
        "miles": {
            "estimated_diameter_min": 0.0143848705,
            "estimated_diameter_max": 0.0321655483
        },
        "feet": {
            "estimated_diameter_min": 75.9521422633,
            "estimated_diameter_max": 169.8341531374
        }
    },
    "is_potentially_hazardous_asteroid": false,
    "close_approach_data": [
        {
            "close_approach_date": "2019-01-29",
            "close_approach_date_full": "2019-Jan-29 20:45",
            "epoch_date_close_approach": 1548794700000,
            "relative_velocity": {
                "kilometers_per_second": "12.192808137",
                "kilometers_per_hour": "43894.1092932608",
                "miles_per_hour": "27274.0925216931"
            },
            "miss_distance": {
                "astronomical": "0.0259099655",
                "lunar": "10.0789765795",
                "kilometers": "3876075.650573485",
                "miles": "2408481.726484693"
            },
            "orbiting_body": "Earth"
        },
        {
            "close_approach_date": "2021-02-20",
            "close_approach_date_full": "2021-Feb-20 20:54",
            "epoch_date_close_approach": 1613854440000,
            "relative_velocity": {
                "kilometers_per_second": "22.5813837971",
                "kilometers_per_hour": "81292.9816694135",
                "miles_per_hour": "50512.2974156419"
            },
            "miss_distance": {
                "astronomical": "0.3261093806",
                "lunar": "126.8565490534",
                "kilometers": "48785268.724779322",
                "miles": "30313760.3178337636"
            },
            "orbiting_body": "Earth"
        }
    ],
    "orbital_data": {
        "orbit_id": "1",
        "orbit_determination_date": "2019-02-10 08:42:02",
        "first_observation_date": "2019-02-08",
        "last_observation_date": "2019-02-10",
        "data_arc_in_days": 2,
        "observations_used": 24,
        "orbit_uncertainty": "8",
        "minimum_orbit_intersection": ".00808689",
        "jupiter_tisserand_invariant": "4.175",
        "epoch_osculation": "2458523.5",
        "eccentricity": ".5084706290293345",
        "semi_major_axis": "1.616352020129119",
        "inclination": "5.194670624959773",
        "ascending_node_longitude": "126.812012258276",
        "orbital_period": "750.5892711968504",
        "perihelion_distance": ".7944844917212306",
        "perihelion_argument": "300.5059364018836",
        "aphelion_distance": "2.438219548537008",
        "perihelion_time": "2458470.409322270868",
        "mean_anomaly": "25.46351875242168",
        "mean_motion": ".4796231625133182",
        "equinox": "J2000",
        "orbit_class": {
            "orbit_class_type": "APO",
            "orbit_class_description": "Near-Earth asteroid orbits which cross the Earth’s orbit similar to that of 1862 Apollo",
            "orbit_class_range": "a (semi-major axis) > 1.0 AU; q (perihelion) < 1.017 AU"
        }
    },
    "is_sentry_object": false
}